[
    {
        "OBJECT_NAME": "BEIDOU-3 IGSO-3",
        "OBJECT_ID": "2019-073A",
        "EPOCH": "2025-05-02T20:21:59.371776",
        "MEAN_MOTION": 1.00259045,
        "ECCENTRICITY": 0.0043733,
        "INCLINATION": 55.5056,
        "RA_OF_ASC_NODE": 285.3186,
        "ARG_OF_PERICENTER": 182.0464,
        "MEAN_ANOMALY": 177.8521,
        "EPHEMERIS_TYPE": 0,
        "CLASSIFICATION_TYPE": "U",
        "NORAD_CAT_ID": 44709,
        "ELEMENT_SET_NO": 999,
        "REV_AT_EPOCH": 2034,
        "BSTAR": 0,
        "MEAN_MOTION_DOT": -1.94e-06,
        "MEAN_MOTION_DDOT": 0
    },
    {
        "OBJECT_NAME": "BEIDOU-3 M22",
        "OBJECT_ID": "2019-078A",
        "EPOCH": "2025-05-03T09:19:28.712928",
        "MEAN_MOTION": 1.86232113,
        "ECCENTRICITY": 0.0006883,
        "INCLINATION": 54.3047,
        "RA_OF_ASC_NODE": 314.2061,
        "ARG_OF_PERICENTER": 37.6508,
        "MEAN_ANOMALY": 322.3981,
        "EPHEMERIS_TYPE": 0,
        "CLASSIFICATION_TYPE": "U",
        "NORAD_CAT_ID": 44793,
        "ELEMENT_SET_NO": 999,
        "REV_AT_EPOCH": 3702,
        "BSTAR": 0,
        "MEAN_MOTION_DOT": -6.7e-07,
        "MEAN_MOTION_DDOT": 0
    },
    {
        "OBJECT_NAME": "BEIDOU-3 M21",
        "OBJECT_ID": "2019-078B",
        "EPOCH": "2025-05-01T21:50:31.634304",
        "MEAN_MOTION": 1.86227703,
        "ECCENTRICITY": 0.0004863,
        "INCLINATION": 54.2791,
        "RA_OF_ASC_NODE": 314.2271,
        "ARG_OF_PERICENTER": 35.1096,
        "MEAN_ANOMALY": 324.9217,
        "EPHEMERIS_TYPE": 0,
        "CLASSIFICATION_TYPE": "U",
        "NORAD_CAT_ID": 44794,
        "ELEMENT_SET_NO": 999,
        "REV_AT_EPOCH": 3699,
        "BSTAR": 0,
        "MEAN_MOTION_DOT": -6.7e-07,
        "MEAN_MOTION_DDOT": 0
    },
    {
        "OBJECT_NAME": "BEIDOU-3 M19",
        "OBJECT_ID": "2019-090A",
        "EPOCH": "2025-05-03T07:36:30.888288",
        "MEAN_MOTION": 1.8623152,
        "ECCENTRICITY": 0.0019436,
        "INCLINATION": 56.1994,
        "RA_OF_ASC_NODE": 76.3761,
        "ARG_OF_PERICENTER": 290.7704,
        "MEAN_ANOMALY": 126.0226,
        "EPHEMERIS_TYPE": 0,
        "CLASSIFICATION_TYPE": "U",
        "NORAD_CAT_ID": 44864,
        "ELEMENT_SET_NO": 999,
        "REV_AT_EPOCH": 3660,
        "BSTAR": 0,
        "MEAN_MOTION_DOT": -1.4e-07,
        "MEAN_MOTION_DDOT": 0
    },
    {
        "OBJECT_NAME": "BEIDOU-3 M20",
        "OBJECT_ID": "2019-090B",
        "EPOCH": "2025-05-03T21:34:18.425568",
        "MEAN_MOTION": 1.86231474,
        "ECCENTRICITY": 0.0017277,
        "INCLINATION": 56.2016,
        "RA_OF_ASC_NODE": 76.3906,
        "ARG_OF_PERICENTER": 303.3017,
        "MEAN_ANOMALY": 233.2246,
        "EPHEMERIS_TYPE": 0,
        "CLASSIFICATION_TYPE": "U",
        "NORAD_CAT_ID": 44865,
        "ELEMENT_SET_NO": 999,
        "REV_AT_EPOCH": 3659,
        "BSTAR": 0,
        "MEAN_MOTION_DOT": -1.3e-07,
        "MEAN_MOTION_DDOT": 0
    },
    {
        "OBJECT_NAME": "BEIDOU-3 G2",
        "OBJECT_ID": "2020-017A",
        "EPOCH": "2025-05-03T21:36:11.022912",
        "MEAN_MOTION": 1.0027135,
        "ECCENTRICITY": 0.0002528,
        "INCLINATION": 2.7991,
        "RA_OF_ASC_NODE": 39.5015,
        "ARG_OF_PERICENTER": 342.4067,
        "MEAN_ANOMALY": 244.2027,
        "EPHEMERIS_TYPE": 0,
        "CLASSIFICATION_TYPE": "U",
        "NORAD_CAT_ID": 45344,
        "ELEMENT_SET_NO": 999,
        "REV_AT_EPOCH": 1915,
        "BSTAR": 0,
        "MEAN_MOTION_DOT": -1.51e-06,
        "MEAN_MOTION_DDOT": 0
    },
    {
        "OBJECT_NAME": "BEIDOU-3 G3",
        "OBJECT_ID": "2020-040A",
        "EPOCH": "2025-05-03T21:43:31.066752",
        "MEAN_MOTION": 1.00269493,
        "ECCENTRICITY": 0.0002394,
        "INCLINATION": 1.4599,
        "RA_OF_ASC_NODE": 62.9563,
        "ARG_OF_PERICENTER": 320.2501,
        "MEAN_ANOMALY": 275.26,
        "EPHEMERIS_TYPE": 0,
        "CLASSIFICATION_TYPE": "U",
        "NORAD_CAT_ID": 45807,
        "ELEMENT_SET_NO": 999,
        "REV_AT_EPOCH": 1796,
        "BSTAR": 0,
        "MEAN_MOTION_DOT": -3.64e-06,
        "MEAN_MOTION_DDOT": 0
    },
    {
        "OBJECT_NAME": "BEIDOU-3 G4",
        "OBJECT_ID": "2023-066A",
        "EPOCH": "2025-05-03T20:16:14.392992",
        "MEAN_MOTION": 1.00272858,
        "ECCENTRICITY": 0.0005245,
        "INCLINATION": 1.3299,
        "RA_OF_ASC_NODE": 291.5485,
        "ARG_OF_PERICENTER": 176.1601,
        "MEAN_ANOMALY": 218.3044,
        "EPHEMERIS_TYPE": 0,
        "CLASSIFICATION_TYPE": "U",
        "NORAD_CAT_ID": 56564,
        "ELEMENT_SET_NO": 999,
        "REV_AT_EPOCH": 729,
        "BSTAR": 0,
        "MEAN_MOTION_DOT": -1.24e-06,
        "MEAN_MOTION_DDOT": 0
    },
    {
        "OBJECT_NAME": "BEIDOU-3 M28",
        "OBJECT_ID": "2023-207A",
        "EPOCH": "2025-05-03T14:25:27.446304",
        "MEAN_MOTION": 1.86229882,
        "ECCENTRICITY": 0.0004458,
        "INCLINATION": 55.3872,
        "RA_OF_ASC_NODE": 76.1608,
        "ARG_OF_PERICENTER": 313.5501,
        "MEAN_ANOMALY": 46.3831,
        "EPHEMERIS_TYPE": 0,
        "CLASSIFICATION_TYPE": "U",
        "NORAD_CAT_ID": 58654,
        "ELEMENT_SET_NO": 999,
        "REV_AT_EPOCH": 921,
        "BSTAR": 0,
        "MEAN_MOTION_DOT": -1.6e-07,
        "MEAN_MOTION_DDOT": 0
    },
    {
        "OBJECT_NAME": "BEIDOU-3 M26",
        "OBJECT_ID": "2023-207B",
        "EPOCH": "2025-05-03T09:36:54.601344",
        "MEAN_MOTION": 1.86231592,
        "ECCENTRICITY": 0.0004846,
        "INCLINATION": 55.3891,
        "RA_OF_ASC_NODE": 76.1535,
        "ARG_OF_PERICENTER": 294.5763,
        "MEAN_ANOMALY": 65.343,
        "EPHEMERIS_TYPE": 0,
        "CLASSIFICATION_TYPE": "U",
        "NORAD_CAT_ID": 58655,
        "ELEMENT_SET_NO": 999,
        "REV_AT_EPOCH": 919,
        "BSTAR": 0,
        "MEAN_MOTION_DOT": -1.6e-07,
        "MEAN_MOTION_DDOT": 0
    },
    {
        "OBJECT_NAME": "BEIDOU-3 M25",
        "OBJECT_ID": "2024-168B",
        "EPOCH": "2025-05-01T21:04:03.058752",
        "MEAN_MOTION": 1.86229948,
        "ECCENTRICITY": 0.0003498,
        "INCLINATION": 54.8334,
        "RA_OF_ASC_NODE": 316.4956,
        "ARG_OF_PERICENTER": 306.3894,
        "MEAN_ANOMALY": 230.5416,
        "EPHEMERIS_TYPE": 0,
        "CLASSIFICATION_TYPE": "U",
        "NORAD_CAT_ID": 61186,
        "ELEMENT_SET_NO": 999,
        "REV_AT_EPOCH": 412,
        "BSTAR": 0,
        "MEAN_MOTION_DOT": -6.9e-07,
        "MEAN_MOTION_DDOT": 0
    },
    {
        "OBJECT_NAME": "BEIDOU-3 M27",
        "OBJECT_ID": "2024-168C",
        "EPOCH": "2025-05-03T08:06:51.928128",
        "MEAN_MOTION": 1.86230164,
        "ECCENTRICITY": 0.0002333,
        "INCLINATION": 54.8278,
        "RA_OF_ASC_NODE": 316.4296,
        "ARG_OF_PERICENTER": 29.7606,
        "MEAN_ANOMALY": 181.0898,
        "EPHEMERIS_TYPE": 0,
        "CLASSIFICATION_TYPE": "U",
        "NORAD_CAT_ID": 61187,
        "ELEMENT_SET_NO": 999,
        "REV_AT_EPOCH": 162,
        "BSTAR": 0,
        "MEAN_MOTION_DOT": -6.8e-07,
        "MEAN_MOTION_DDOT": 0
    }
]