BEIDOU-3 IGSO-3 (C40)   
1 44709U 19073A   25122.84860384 -.00000194  00000+0  00000+0 0  9990
2 44709  55.5056 285.3186 0043733 182.0464 177.8521  1.00259045 20346
BEIDOU-3 M22 (C44)      
1 44793U 19078A   25123.38852677 -.00000067  00000+0  00000+0 0  9993
2 44793  54.3047 314.2061 0006883  37.6508 322.3981  1.86232113 37020
BEIDOU-3 M21 (C43)      
1 44794U 19078B   25121.91008836 -.00000067  00000+0  00000+0 0  9991
2 44794  54.2791 314.2271 0004863  35.1096 324.9217  1.86227703 36994
BEIDOU-3 M19 (C41)      
1 44864U 19090A   25123.31702417 -.00000014  00000+0  00000+0 0  9997
2 44864  56.1994  76.3761 0019436 290.7704 126.0226  1.86231520 36606
BEIDOU-3 M20 (C42)      
1 44865U 19090B   25123.89882437 -.00000013  00000+0  00000+0 0  9991
2 44865  56.2016  76.3906 0017277 303.3017 233.2246  1.86231474 36592
BEIDOU-3 G2 (C60)       
1 45344U 20017A   25123.90012758 -.00000151  00000+0  00000+0 0  9991
2 45344   2.7991  39.5015 0002528 342.4067 244.2027  1.00271350 19152
BEIDOU-3 G3 (C61)       
1 45807U 20040A   25123.90522068 -.00000364  00000+0  00000+0 0  9997
2 45807   1.4599  62.9563 0002394 320.2501 275.2600  1.00269493 17965
BEIDOU-3 G4 (C62)       
1 56564U 23066A   25123.84461103 -.00000124  00000+0  00000+0 0  9999
2 56564   1.3299 291.5485 0005245 176.1601 218.3044  1.00272858  7297
BEIDOU-3 M28 (C50)      
1 58654U 23207A   25123.60101211 -.00000016  00000+0  00000+0 0  9993
2 58654  55.3872  76.1608 0004458 313.5501  46.3831  1.86229882  9210
BEIDOU-3 M26 (C48)      
1 58655U 23207B   25123.40063196 -.00000016  00000+0  00000+0 0  9991
2 58655  55.3891  76.1535 0004846 294.5763  65.3430  1.86231592  9194
BEIDOU-3 M25 (C47)      
1 61186U 24168B   25121.87781318 -.00000069  00000+0  00000+0 0  9991
2 61186  54.8334 316.4956 0003498 306.3894 230.5416  1.86229948  4129
BEIDOU-3 M27 (C49)      
1 61187U 24168C   25123.33810102 -.00000068  00000+0  00000+0 0  9998
2 61187  54.8278 316.4296 0002333  29.7606 181.0898  1.86230164  1626
